[{"OBJECT_NAME":"STARLINK-6317","OBJECT_ID":"2023-065Z","EPOCH":"2026-03-09T10:57:06.546528","MEAN_MOTION":15.02535886,"ECCENTRICITY":0.00015262,"INCLINATION":43.004,"RA_OF_ASC_NODE":211.2626,"ARG_OF_PERICENTER":266.4455,"MEAN_ANOMALY":93.6213,"EPHEMERIS_TYPE":0,"CLASSIFICATION_TYPE":"U","NORAD_CAT_ID":56526,"ELEMENT_SET_NO":999,"REV_AT_EPOCH":15659,"BSTAR":-3.4543539e-5,"MEAN_MOTION_DOT":-6.7e-6,"MEAN_MOTION_DDOT":0},{"OBJECT_NAME":"COSMOS 2251 DEB","OBJECT_ID":"1993-036AUU","EPOCH":"2026-03-05T06:52:33.034944","MEAN_MOTION":15.00530799,"ECCENTRICITY":0.0084949,"INCLINATION":74.0317,"RA_OF_ASC_NODE":43.0245,"ARG_OF_PERICENTER":102.0037,"MEAN_ANOMALY":259.0688,"EPHEMERIS_TYPE":0,"CLASSIFICATION_TYPE":"U","NORAD_CAT_ID":35905,"ELEMENT_SET_NO":999,"REV_AT_EPOCH":89820,"BSTAR":0.00077707,"MEAN_MOTION_DOT":0.00010555,"MEAN_MOTION_DDOT":0}]
